{"type": "FeatureCollection", "features": [ {"type": "Feature", "properties": {"norad_id": 30096, "name": "FENGYUN 1C DEB", "group": "fengyun-1c-debris", "lat": 10.52064209469297, "lon": -98.63824917772725, "alt_km": 735.8536047896177, "timestamp": "2025-12-25T16:53:14.937260+00:00", "meta": {"OBJECT_NAME": "FENGYUN 1C DEB", "OBJECT_ID": "1999-025QZ", "EPOCH": "2025-12-25T04:21:20.817216", "MEAN_MOTION": 14.31713018, "ECCENTRICITY": 0.00796868, "INCLINATION": 99.1466, "RA_OF_ASC_NODE": 79.0973, "ARG_OF_PERICENTER": 196.2839, "MEAN_ANOMALY": 163.578, "EPHEMERIS_TYPE": 0, "CLASSIFICATION_TYPE": "U", "NORAD_CAT_ID": 30096, "ELEMENT_SET_NO": 999, "REV_AT_EPOCH": 98724, "BSTAR": 0.00031820784, "MEAN_MOTION_DOT": 8.3e-06, "MEAN_MOTION_DDOT": 0}, "tle": {"line1": "1 30096U 99025QZ  25359.18149094  .00000830  00000+0  31821-3 0  9991", "line2": "2 30096  99.1466  79.0973 0079686 196.2839 163.5780 14.31713018987243"}}, "geometry": {"type": "Point", "coordinates": [-98.63824917772725, 10.52064209469297]}}, {"type": "Feature", "properties": {"norad_id": 30099, "name": "FENGYUN 1C DEB", "group": "fengyun-1c-debris", "lat": 37.64775445612814, "lon": -101.66292329232004, "alt_km": 783.3777160104282, "timestamp": "2025-12-25T16:53:14.937270+00:00", "meta": {"OBJECT_NAME": "FENGYUN 1C DEB", "OBJECT_ID": "1999-025RC", "EPOCH": "2025-12-25T04:41:26.564640", "MEAN_MOTION": 14.25955048, "ECCENTRICITY": 0.00616666, "INCLINATION": 98.539, "RA_OF_ASC_NODE": 71.1862, "ARG_OF_PERICENTER": 208.0053, "MEAN_ANOMALY": 207.078, "EPHEMERIS_TYPE": 0, "CLASSIFICATION_TYPE": "U", "NORAD_CAT_ID": 30099, "ELEMENT_SET_NO": 999, "REV_AT_EPOCH": 98367, "BSTAR": 0.00030166497, "MEAN_MOTION_DOT": 6.91e-06, "MEAN_MOTION_DDOT": 0}, "tle": {"line1": "1 30099U 99025RC  25359.19544635  .00000691  00000+0  30166-3 0  9991", "line2": "2 30099  98.5390  71.1862 0061666 208.0053 207.0780 14.25955048983675"}}, "geometry": {"type": "Point", "coordinates": [-101.66292329232004, 37.64775445612814]}}, {"type": "Feature", "properties": {"norad_id": 30102, "name": "FENGYUN 1C DEB", "group": "fengyun-1c-debris", "lat": 32.08068045679649, "lon": -167.85805628010743, "alt_km": 917.2557312476529, "timestamp": "2025-12-25T16:53:14.937280+00:00", "meta": {"OBJECT_NAME": "FENGYUN 1C DEB", "OBJECT_ID": "1999-025RF", "EPOCH": "2025-12-24T23:35:16.919808", "MEAN_MOTION": 14.22147873, "ECCENTRICITY": 0.01410054, "INCLINATION": 98.379, "RA_OF_ASC_NODE": 6.1558, "ARG_OF_PERICENTER": 324.3912, "MEAN_ANOMALY": 94.9394, "EPHEMERIS_TYPE": 0, "CLASSIFICATION_TYPE": "U", "NORAD_CAT_ID": 30102, "ELEMENT_SET_NO": 999, "REV_AT_EPOCH": 98132, "BSTAR": 0.00028715723, "MEAN_MOTION_DOT": 6.62e-06, "MEAN_MOTION_DDOT": 0}, "tle": {"line1": "1 30102U 99025RF  25358.98283472  .00000662  00000+0  28716-3 0  9997", "line2": "2 30102  98.3790   6.1558 0141005 324.3912  94.9394 14.22147873981324"}}, "geometry": {"type": "Point", "coordinates": [-167.85805628010743, 32.08068045679649]}}, {"type": "Feature", "properties": {"norad_id": 30103, "name": "FENGYUN 1C DEB", "group": "fengyun-1c-debris", "lat": -79.0569554452521, "lon": 39.2714719485636, "alt_km": 861.298343454193, "timestamp": "2025-12-25T16:53:14.937290+00:00", "meta": {"OBJECT_NAME": "FENGYUN 1C DEB", "OBJECT_ID": "1999-025RG", "EPOCH": "2025-12-24T23:02:55.009824", "MEAN_MOTION": 14.24882983, "ECCENTRICITY": 0.00643239, "INCLINATION": 99.2463, "RA_OF_ASC_NODE": 341.083, "ARG_OF_PERICENTER": 85.4284, "MEAN_ANOMALY": 339.9915, "EPHEMERIS_TYPE": 0, "CLASSIFICATION_TYPE": "U", "NORAD_CAT_ID": 30103, "ELEMENT_SET_NO": 999, "REV_AT_EPOCH": 98093, "BSTAR": 0.00044667071, "MEAN_MOTION_DOT": 1.018e-05, "MEAN_MOTION_DDOT": 0}, "tle": {"line1": "1 30103U 99025RG  25358.96035891  .00001018  00000+0  44667-3 0  9995", "line2": "2 30103  99.2463 341.0830 0064323  85.4284 339.9915 14.24882983980937"}}, "geometry": {"type": "Point", "coordinates": [39.2714719485636, -79.0569554452521]}}, {"type": "Feature", "properties": {"norad_id": 30104, "name": "FENGYUN 1C DEB", "group": "fengyun-1c-debris", "lat": 18.958095884973375, "lon": 19.06885979767, "alt_km": 806.2221567927782, "timestamp": "2025-12-25T16:53:14.937300+00:00", "meta": {"OBJECT_NAME": "FENGYUN 1C DEB", "OBJECT_ID": "1999-025RH", "EPOCH": "2025-12-24T11:47:04.426080", "MEAN_MOTION": 14.25702867, "ECCENTRICITY": 0.00741424, "INCLINATION": 98.3594, "RA_OF_ASC_NODE": 195.0172, "ARG_OF_PERICENTER": 73.9391, "MEAN_ANOMALY": 345.6698, "EPHEMERIS_TYPE": 0, "CLASSIFICATION_TYPE": "U", "NORAD_CAT_ID": 30104, "ELEMENT_SET_NO": 999, "REV_AT_EPOCH": 98060, "BSTAR": 0.00063423733, "MEAN_MOTION_DOT": 1.508e-05, "MEAN_MOTION_DDOT": 0}, "tle": {"line1": "1 30104U 99025RH  25358.49102345  .00001508  00000+0  63424-3 0  9999", "line2": "2 30104  98.3594 195.0172 0074142  73.9391 345.6698 14.25702867980609"}}, "geometry": {"type": "Point", "coordinates": [19.06885979767, 18.958095884973375]}}, {"type": "Feature", "properties": {"norad_id": 30105, "name": "FENGYUN 1C DEB", "group": "fengyun-1c-debris", "lat": 69.08723700870685, "lon": -37.90320396989697, "alt_km": 694.342442351036, "timestamp": "2025-12-25T16:53:14.937310+00:00", "meta": {"OBJECT_NAME": "FENGYUN 1C DEB", "OBJECT_ID": "1999-025RJ", "EPOCH": "2025-12-24T21:59:04.104672", "MEAN_MOTION": 14.21422732, "ECCENTRICITY": 0.0199487, "INCLINATION": 98.5948, "RA_OF_ASC_NODE": 344.6449, "ARG_OF_PERICENTER": 38.8196, "MEAN_ANOMALY": 322.7121, "EPHEMERIS_TYPE": 0, "CLASSIFICATION_TYPE": "U", "NORAD_CAT_ID": 30105, "ELEMENT_SET_NO": 999, "REV_AT_EPOCH": 97935, "BSTAR": 0.00041926, "MEAN_MOTION_DOT": 1.076e-05, "MEAN_MOTION_DDOT": 0}, "tle": {"line1": "1 30105U 99025RJ  25358.91601973  .00001076  00000+0  41926-3 0  9991", "line2": "2 30105  98.5948 344.6449 0199487  38.8196 322.7121 14.21422732979350"}}, "geometry": {"type": "Point", "coordinates": [-37.90320396989697, 69.08723700870685]}}, {"type": "Feature", "properties": {"norad_id": 30106, "name": "FENGYUN 1C DEB", "group": "fengyun-1c-debris", "lat": 15.121008854643513, "lon": 91.0381803981597, "alt_km": 578.541817952103, "timestamp": "2025-12-25T16:53:14.937321+00:00", "meta": {"OBJECT_NAME": "FENGYUN 1C DEB", "OBJECT_ID": "1999-025RK", "EPOCH": "2025-12-25T07:00:24.666624", "MEAN_MOTION": 14.86015423, "ECCENTRICITY": 0.00474203, "INCLINATION": 98.9234, "RA_OF_ASC_NODE": 268.1435, "ARG_OF_PERICENTER": 155.4233, "MEAN_ANOMALY": 327.9243, "EPHEMERIS_TYPE": 0, "CLASSIFICATION_TYPE": "U", "NORAD_CAT_ID": 30106, "ELEMENT_SET_NO": 999, "REV_AT_EPOCH": 98731, "BSTAR": 0.0043834303, "MEAN_MOTION_DOT": 0.00039246, "MEAN_MOTION_DDOT": 0}, "tle": {"line1": "1 30106U 99025RK  25359.29195216  .00039246  00000+0  43834-2 0  9991", "line2": "2 30106  98.9234 268.1435 0047420 155.4233 327.9243 14.86015423987318"}}, "geometry": {"type": "Point", "coordinates": [91.0381803981597, 15.121008854643513]}}, {"type": "Feature", "properties": {"norad_id": 30107, "name": "FENGYUN 1C DEB", "group": "fengyun-1c-debris", "lat": 13.702164512691587, "lon": 54.325823860975184, "alt_km": 909.6323175876632, "timestamp": "2025-12-25T16:53:14.937331+00:00", "meta": {"OBJECT_NAME": "FENGYUN 1C DEB", "OBJECT_ID": "1999-025RL", "EPOCH": "2025-12-20T02:41:53.850912", "MEAN_MOTION": 14.14426483, "ECCENTRICITY": 0.01264175, "INCLINATION": 98.8461, "RA_OF_ASC_NODE": 50.9636, "ARG_OF_PERICENTER": 254.497, "MEAN_ANOMALY": 104.2214, "EPHEMERIS_TYPE": 0, "CLASSIFICATION_TYPE": "U", "NORAD_CAT_ID": 30107, "ELEMENT_SET_NO": 999, "REV_AT_EPOCH": 97665, "BSTAR": 0.00010810798, "MEAN_MOTION_DOT": 1.78e-06, "MEAN_MOTION_DDOT": 0}, "tle": {"line1": "1 30107U 99025RL  25354.11242883  .00000178  00000+0  10811-3 0  9993", "line2": "2 30107  98.8461  50.9636 0126417 254.4970 104.2214 14.14426483976654"}}, "geometry": {"type": "Point", "coordinates": [54.325823860975184, 13.702164512691587]}}, {"type": "Feature", "properties": {"norad_id": 30108, "name": "FENGYUN 1C DEB", "group": "fengyun-1c-debris", "lat": 45.929555208398554, "lon": -23.82902806618766, "alt_km": 761.3493689269153, "timestamp": "2025-12-25T16:53:14.937341+00:00", "meta": {"OBJECT_NAME": "FENGYUN 1C DEB", "OBJECT_ID": "1999-025RM", "EPOCH": "2025-12-24T22:08:17.678112", "MEAN_MOTION": 14.17196051, "ECCENTRICITY": 0.0196981, "INCLINATION": 98.6614, "RA_OF_ASC_NODE": 344.4687, "ARG_OF_PERICENTER": 347.2079, "MEAN_ANOMALY": 34.0514, "EPHEMERIS_TYPE": 0, "CLASSIFICATION_TYPE": "U", "NORAD_CAT_ID": 30108, "ELEMENT_SET_NO": 999, "REV_AT_EPOCH": 97771, "BSTAR": 0.00042389, "MEAN_MOTION_DOT": 9.89e-06, "MEAN_MOTION_DDOT": 0}, "tle": {"line1": "1 30108U 99025RM  25358.92242683  .00000989  00000+0  42389-3 0  9990", "line2": "2 30108  98.6614 344.4687 0196981 347.2079  34.0514 14.17196051977713"}}, "geometry": {"type": "Point", "coordinates": [-23.82902806618766, 45.929555208398554]}}, {"type": "Feature", "properties": {"norad_id": 30109, "name": "FENGYUN 1C DEB", "group": "fengyun-1c-debris", "lat": 7.610503527579946, "lon": 173.81913836228838, "alt_km": 723.4572028211487, "timestamp": "2025-12-25T16:53:14.937351+00:00", "meta": {"OBJECT_NAME": "FENGYUN 1C DEB", "OBJECT_ID": "1999-025RN", "EPOCH": "2025-12-24T23:29:01.879008", "MEAN_MOTION": 14.1756688, "ECCENTRICITY": 0.01677778, "INCLINATION": 98.5086, "RA_OF_ASC_NODE": 351.9782, "ARG_OF_PERICENTER": 196.8989, "MEAN_ANOMALY": 237.4918, "EPHEMERIS_TYPE": 0, "CLASSIFICATION_TYPE": "U", "NORAD_CAT_ID": 30109, "ELEMENT_SET_NO": 999, "REV_AT_EPOCH": 97725, "BSTAR": 0.00028423775, "MEAN_MOTION_DOT": 6.21e-06, "MEAN_MOTION_DDOT": 0}, "tle": {"line1": "1 30109U 99025RN  25358.97849397  .00000621  00000+0  28424-3 0  9998", "line2": "2 30109  98.5086 351.9782 0167777 196.8989 237.4918 14.17566880977251"}}, "geometry": {"type": "Point", "coordinates": [173.81913836228838, 7.610503527579946]}}]}